[
    {
        "Altitude(m)": 611965.2273167444,
        "Argument of Periapsis(deg)": 0.0,
        "Eccentricity": 0.0,
        "Inclination(deg)": 60.0,
        "Latitude(deg)": 59.140288758354906,
        "Longitude(deg)": 53.96968469206301,
        "Mean Anomaly(deg)": 81.81820000000002,
        "RAAN(deg)": 80.0,
        "Satellite Name": "Test1 357",
        "Satellite Number": 357,
        "Semi-Major Axis(m)": 6980739.136638005,
        "Time(s)": 0
    },
    {
        "Altitude(m)": 611995.8532202543,
        "Argument of Periapsis(deg)": 0.00010418945913296404,
        "Eccentricity": 0.0,
        "Inclination(deg)": 60.0,
        "Latitude(deg)": 59.28339029517082,
        "Longitude(deg)": 55.103050359182305,
        "Mean Anomaly(deg)": 82.43830614546184,
        "RAAN(deg)": 79.99957995086025,
        "Satellite Name": "Test1 357",
        "Satellite Number": 357,
        "Semi-Major Axis(m)": 6980739.136638005,
        "Time(s)": 10
    }
]